NORAD_CAT_ID,OBJECT_NAME,OBJECT_TYPE,EPOCH,MEAN_MOTION,ECCENTRICITY,INCLINATION,RA_OF_ASC_NODE,ARG_OF_PERICENTER,MEAN_ANOMALY,BSTAR,MEAN_MOTION_DOT,MEAN_MOTION_DDOT,TLE_LINE0,TLE_LINE1,TLE_LINE2,SEMIMAJOR_AXIS,PERIOD,APOGEE,PERIGEE,DECAYED
51991.0,STARLINK-3652,PAYLOAD,2024-02-10 14:03:52,15.08839952,0.0001438,53.2172,202.3795,89.6152,270.5005,0.00015278,2.144e-05,0.0,0 STARLINK-3652,1 51991U 22025AM  24041.58602497  .00002144  00000-0  15278-3 0  9995,2 51991  53.2172 202.3795 0001438  89.6152 270.5005 15.08839952106615,6917.881,95.438,540.74,538.751,0.0
51991.0,STARLINK-3652,PAYLOAD,2024-02-10 15:39:15,15.08840061,0.0001398,53.2174,202.0822,90.0815,270.0338,0.00015535,2.185e-05,0.0,0 STARLINK-3652,1 51991U 22025AM  24041.65226509  .00002185  00000-0  15535-3 0  9990,2 51991  53.2174 202.0822 0001398  90.0815 270.0338 15.08840061107711,6917.88,95.438,540.712,538.778,0.0
51991.0,STARLINK-3652,PAYLOAD,2024-02-11 13:54:39,15.08844506,0.0001467,53.2176,197.9196,103.845,256.2705,3.3074e-05,2.39e-06,0.0,0 STARLINK-3652,1 51991U 22025AM  24042.57962395  .00000239  00000-0  33074-4 0  9999,2 51991  53.2176 197.9196 0001467 103.8450 256.2705 15.08844506106760,6917.867,95.437,540.746,538.717,0.0
51991.0,STARLINK-3652,PAYLOAD,2024-02-11 17:05:25,15.08846403,0.0001454,53.2178,197.3252,99.1193,260.9963,4.5073e-05,4.3e-06,0.0,0 STARLINK-3652,1 51991U 22025AM  24042.71210207  .00000430  00000-0  45073-4 0  9998,2 51991  53.2178 197.3252 0001454  99.1193 260.9963 15.08846403107875,6917.861,95.437,540.732,538.72,0.0
51991.0,STARLINK-3652,PAYLOAD,2024-02-11 20:16:11,15.08849916,0.0001296,53.2165,196.7277,91.1409,268.9732,5.5447e-05,5.95e-06,0.0,0 STARLINK-3652,1 51991U 22025AM  24042.84457843  .00000595  00000-0  55447-4 0  9999,2 51991  53.2165 196.7277 0001296  91.1409 268.9732 15.08849916106803,6917.85,95.437,540.612,538.819,0.0
51991.0,STARLINK-3652,PAYLOAD,2024-02-12 10:34:40,15.08821892,0.000143,53.2177,194.0463,100.5422,259.5732,0.00024825,3.663e-05,0.0,0 STARLINK-3652,1 51991U 22025AM  24043.44074821  .00003663  00000-0  24825-3 0  9991,2 51991  53.2177 194.0463 0001430 100.5422 259.5732 15.08821892107983,6917.936,95.439,540.79,538.811,0.0
51991.0,STARLINK-3652,PAYLOAD,2024-02-12 13:45:26,15.08847015,0.0001291,53.2165,193.451,104.2215,255.892,-3.6703e-06,-3.46e-06,0.0,0 STARLINK-3652,1 51991U 22025AM  24043.57322066 -.00000346  00000-0 -36703-5 0  9999,2 51991  53.2165 193.4510 0001291 104.2215 255.8920 15.08847015106917,6917.859,95.437,540.617,538.831,0.0
51991.0,STARLINK-3652,PAYLOAD,2024-02-12 16:56:12,15.08849774,0.000129,53.2171,192.8565,91.6783,268.4357,2.1082e-05,4.8e-07,0.0,0 STARLINK-3652,1 51991U 22025AM  24043.70569819  .00000048  00000-0  21082-4 0  9993,2 51991  53.2171 192.8565 0001290  91.6783 268.4357 15.08849774108027,6917.851,95.437,540.608,538.823,0.0
51991.0,STARLINK-3652,PAYLOAD,2024-02-13 13:36:14,15.08837603,0.0001333,53.2168,188.9954,99.7439,260.3704,-5.0939e-05,-1.098e-05,0.0,0 STARLINK-3652,1 51991U 22025AM  24044.56683132 -.00001098  00000-0 -50939-4 0  9994,2 51991  53.2168 188.9954 0001333  99.7439 260.3704 15.08837603107064,6917.888,95.438,540.675,538.831,0.0
51991.0,STARLINK-3652,PAYLOAD,2024-02-13 16:47:00,15.08842029,0.0001184,53.2168,188.4032,87.17,272.9427,-3.7156e-05,-8.79e-06,0.0,0 STARLINK-3652,1 51991U 22025AM  24044.69930876 -.00000879  00000-0 -37156-4 0  9990,2 51991  53.2168 188.4032 0001184  87.1700 272.9427 15.08842029108174,6917.874,95.437,540.558,538.92,0.0
51991.0,STARLINK-3652,PAYLOAD,2024-02-14 08:40:51,15.08833192,0.0001166,53.2181,185.4313,81.8015,278.3109,0.00010114,1.322e-05,0.0,0 STARLINK-3652,1 51991U 22025AM  24045.36171268  .00001322  00000-0  10114-3 0  9993,2 51991  53.2181 185.4313 0001166  81.8015 278.3109 15.08833192108277,6917.901,95.438,540.573,538.96,0.0
51991.0,STARLINK-3652,PAYLOAD,2024-02-14 15:02:24,15.08838323,0.0001366,53.2179,184.2413,91.5166,268.5983,2.3156e-05,8.1e-07,0.0,0 STARLINK-3652,1 51991U 22025AM  24045.62667349  .00000081  00000-0  23156-4 0  9994,2 51991  53.2179 184.2413 0001366  91.5166 268.5983 15.08838323107225,6917.886,95.438,540.695,538.806,0.0
51991.0,STARLINK-3652,PAYLOAD,2024-02-14 18:13:10,15.0884803,0.0001344,53.218,183.6429,92.8639,267.2507,9.4551e-05,1.217e-05,0.0,0 STARLINK-3652,1 51991U 22025AM  24045.75914365  .00001217  00000-0  94551-4 0  9990,2 51991  53.2180 183.6429 0001344  92.8639 267.2507 15.08848030108339,6917.856,95.437,540.651,538.791,0.0
51991.0,STARLINK-3652,PAYLOAD,2024-02-15 08:31:39,15.08831849,0.0001241,53.2165,180.9674,105.3946,254.7183,-6.3771e-06,-3.89e-06,0.0,0 STARLINK-3652,1 51991U 22025AM  24046.35532039 -.00000389  00000-0 -63771-5 0  9993,2 51991  53.2165 180.9674 0001241 105.3946 254.7183 15.08831849108422,6917.905,95.438,540.629,538.912,0.0
51991.0,STARLINK-3652,PAYLOAD,2024-02-15 14:53:12,15.0883504,0.0001481,53.2174,179.779,102.6013,257.5144,2.1493e-05,5.4e-07,0.0,0 STARLINK-3652,1 51991U 22025AM  24046.62027901  .00000054  00000-0  21493-4 0  9991,2 51991  53.2174 179.7790 0001481 102.6013 257.5144 15.08835040107376,6917.896,95.438,540.785,538.736,0.0
51991.0,STARLINK-3652,PAYLOAD,2024-02-15 16:28:35,15.08837151,0.0001514,53.2175,179.4823,76.5499,283.5662,5.0807e-05,5.21e-06,0.0,0 STARLINK-3652,1 51991U 22025AM  24046.68651875  .00000521  00000-0  50807-4 0  9990,2 51991  53.2175 179.4823 0001514  76.5499 283.5662 15.08837151107385,6917.889,95.438,540.801,538.707,0.0
51991.0,STARLINK-3652,PAYLOAD,2024-02-16 02:00:53,15.08842166,0.0001497,53.2177,177.6991,84.2004,275.9159,8.8181e-05,1.116e-05,0.0,0 STARLINK-3652,1 51991U 22025AM  24047.08395453  .00001116  00000-0  88181-4 0  9999,2 51991  53.2177 177.6991 0001497  84.2004 275.9159 15.08842166108537,6917.874,95.437,540.774,538.703,0.0
51991.0,STARLINK-3652,PAYLOAD,2024-02-16 14:43:58,15.0884884,0.0001495,53.217,175.3194,84.1264,275.9898,0.00017227,2.455e-05,0.0,0 STARLINK-3652,1 51991U 22025AM  24047.61386764  .00002455  00000-0  17227-3 0  9992,2 51991  53.2170 175.3194 0001495  84.1264 275.9898 15.08848840107528,6917.853,95.437,540.753,538.684,0.0
51991.0,STARLINK-3652,PAYLOAD,2024-02-17 11:23:59,15.0883767,0.000161,53.2177,171.4545,93.729,266.3886,6.5086e-05,7.48e-06,0.0,0 STARLINK-3652,1 51991U 22025AM  24048.47499647  .00000748  00000-0  65086-4 0  9992,2 51991  53.2177 171.4545 0001610  93.7290 266.3886 15.08837670108741,6917.888,95.438,540.866,538.639,0.0
51991.0,STARLINK-3652,PAYLOAD,2024-02-17 14:34:45,15.08839389,0.0001688,53.2177,170.8593,96.4025,263.716,7.9745e-05,9.81e-06,0.0,0 STARLINK-3652,1 51991U 22025AM  24048.60747509  .00000981  00000-0  79745-4 0  9996,2 51991  53.2177 170.8593 0001688  96.4025 263.7160 15.08839389107674,6917.882,95.438,540.915,538.58,0.0
51991.0,STARLINK-3652,PAYLOAD,2024-02-17 17:45:31,15.08844874,0.0001622,53.2182,170.2618,99.0453,261.0722,5.3461e-05,5.63e-06,0.0,0 STARLINK-3652,1 51991U 22025AM  24048.73995211  .00000563  00000-0  53461-4 0  9998,2 51991  53.2182 170.2618 0001622  99.0453 261.0722 15.08844874107696,6917.865,95.437,540.853,538.608,0.0
51991.0,STARLINK-3652,PAYLOAD,2024-02-18 11:14:46,15.08837048,0.0001372,53.2179,166.9896,106.3408,253.7735,6.2608e-05,7.09e-06,0.0,0 STARLINK-3652,1 51991U 22025AM  24049.46859510  .00000709  00000-0  62608-4 0  9995,2 51991  53.2179 166.9896 0001372 106.3408 253.7735 15.08837048108896,6917.889,95.438,540.704,538.805,0.0
51991.0,STARLINK-3652,PAYLOAD,2024-02-18 14:25:31,15.08862533,0.0001199,53.216,166.3987,83.5552,276.5577,0.00016335,2.314e-05,0.0,0 STARLINK-3652,1 51991U 22025AM  24049.60105667  .00002314  00000-0  16335-3 0  9997,2 51991  53.2160 166.3987 0001199  83.5552 276.5577 15.08862533107820,6917.812,95.436,540.506,538.847,0.0
51991.0,STARLINK-3652,PAYLOAD,2024-02-18 17:36:17,15.08866109,0.0001264,53.2165,165.8039,86.4844,273.6293,0.00019326,2.791e-05,0.0,0 STARLINK-3652,1 51991U 22025AM  24049.73353201  .00002791  00000-0  19326-3 0  9992,2 51991  53.2165 165.8039 0001264  86.4844 273.6293 15.08866109108935,6917.801,95.436,540.54,538.791,0.0
51991.0,STARLINK-3652,PAYLOAD,2024-02-19 14:16:20,15.08831413,0.000128,53.2176,161.9352,97.2427,262.8711,-2.929e-05,-7.54e-06,0.0,0 STARLINK-3652,1 51991U 22025AM  24050.59468115 -.00000754  00000-0 -29290-4 0  9990,2 51991  53.2176 161.9352 0001280  97.2427 262.8711 15.08831413107975,6917.907,95.438,540.657,538.886,0.0
51991.0,STARLINK-3652,PAYLOAD,2024-02-19 17:27:06,15.08830871,0.0001269,53.2177,161.3408,96.8209,263.2928,-3.3816e-05,-8.26e-06,0.0,0 STARLINK-3652,1 51991U 22025AM  24050.72716229 -.00000826  00000-0 -33816-4 0  9996,2 51991  53.2177 161.3408 0001269  96.8209 263.2928 15.08830871109088,6917.908,95.438,540.651,538.895,0.0
51991.0,STARLINK-3652,PAYLOAD,2024-02-20 14:07:07,15.08848033,9.99e-05,53.2158,157.4782,78.5391,281.5713,-0.00011713,-2.152e-05,0.0,0 STARLINK-3652,1 51991U 22025AM  24051.58827759 -.00002152  00000-0 -11713-3 0  9997,2 51991  53.2158 157.4782 0000999  78.5391 281.5713 15.08848033108124,6917.856,95.437,540.412,539.03,0.0
51991.0,STARLINK-3652,PAYLOAD,2024-02-21 12:22:31,15.08838653,0.0001456,53.2182,153.3191,114.2671,245.8474,0.00013489,1.859e-05,0.0,0 STARLINK-3652,1 51991U 22025AM  24052.51563917  .00001859  00000-0  13489-3 0  9997,2 51991  53.2182 153.3191 0001456 114.2671 245.8474 15.08838653109358,6917.885,95.438,540.757,538.742,0.0
51991.0,STARLINK-3652,PAYLOAD,2024-02-21 13:57:54,15.0884265,0.000129,53.2176,153.0185,98.7505,261.3633,0.00016703,2.372e-05,0.0,0 STARLINK-3652,1 51991U 22025AM  24052.58187550  .00002372  00000-0  16703-3 0  9992,2 51991  53.2176 153.0185 0001290  98.7505 261.3633 15.08842650108271,6917.872,95.437,540.63,538.845,0.0
51991.0,STARLINK-3652,PAYLOAD,2024-02-22 13:48:41,15.08842284,0.000133,53.2181,148.5589,90.3948,269.7196,3.1922e-05,2.2e-06,0.0,0 STARLINK-3652,1 51991U 22025AM  24053.57548293  .00000220  00000-0  31922-4 0  9998,2 51991  53.2181 148.5589 0001330  90.3948 269.7196 15.08842284108424,6917.873,95.437,540.658,538.818,0.0
